FLOCK 3P-46             
1 42031U 17008CM  17184.57122075  .00001128  00000-0  51489-4 0  9999
2 42031  97.4950 245.9157 0009247 146.1776 214.0052 15.22650054 21033
FLOCK 3P-47             
1 42032U 17008CN  17184.57162646  .00001773  00000-0  79300-4 0  9996
2 42032  97.4950 245.9153 0009188 146.4916 213.6903 15.22604132 20858
FLOCK 3P-44             
1 42033U 17008CP  17184.56626676  .00001087  00000-0  49774-4 0  9994
2 42033  97.4952 245.9246 0009048 148.1621 212.0164 15.22643617 19605
FLOCK 3P-64             
1 42034U 17008CQ  17184.56583643  .00001802  00000-0  80435-4 0  9995
2 42034  97.4948 245.9186 0008979 147.9437 212.2347 15.22648316 21023
FLOCK 3P-63             
1 42035U 17008CR  17184.56502630  .00001134  00000-0  51751-4 0  9990
2 42035  97.4947 245.9176 0009018 148.3088 211.8693 15.22652099 18998
FLOCK 3P-62             
1 42036U 17008CS  17184.55885087  .00001394  00000-0  62666-4 0  9995
2 42036  97.4949 245.9282 0008948 149.5187 210.6571 15.22794047 20190
FLOCK 3P-38             
1 42037U 17008CT  17184.56265563  .00001053  00000-0  48300-4 0  9999
2 42037  97.4947 245.9207 0008685 148.8291 211.3462 15.22651308 20977
FLOCK 3P-39             
1 42038U 17008CU  17184.56124032  .00001295  00000-0  58631-4 0  9991
2 42038  97.4944 245.9179 0008879 148.6949 211.4817 15.22679129 20927
FLOCK 3P-15             
1 42039U 17008CV  17184.56408362  .00002902  00000-0  12772-3 0  9994
2 42039  97.4947 245.9193 0008848 148.4757 211.7011 15.22636233 20207
FLOCK 3P-13             
1 42040U 17008CW  17184.55964551  .00001279  00000-0  57929-4 0  9992
2 42040  97.4949 245.9271 0008675 148.9544 211.2206 15.22680002 20197
FLOCK 3P-55             
1 42041U 17008CX  17184.54495895  .00001152  00000-0  52232-4 0  9994
2 42041  97.4948 245.9442 0008338 152.4932 207.6747 15.22849511 21039
FLOCK 3P-56             
1 42042U 17008CY  17184.61187126  .00002428  00000-0  10659-3 0  9991
2 42042  97.4945 246.0019 0008455 151.6063 208.5635 15.22889284 20839
FLOCK 3P-81             
1 42043U 17008CZ  17184.58464627  .00002090  00000-0  92877-4 0  9990
2 42043  97.4973 245.9451 0009732 134.1014 226.1024 15.22622715 20214
FLOCK 3P-87             
1 42044U 17008DA  17184.59281751  .00002333  00000-0  10340-3 0  9991
2 42044  97.4969 245.9286 0010025 131.4414 228.7685 15.22588974 20362
FLOCK 3P-29             
1 42045U 17008DB  17184.59381747  .00001522  00000-0  68548-4 0  9991
2 42045  97.4951 245.8906 0009706 129.0363 231.1738 15.22580280 20215
FLOCK 3P-82             
1 42046U 17008DC  17184.13505109  .00002679  00000-0  11842-3 0  9990
2 42046  97.4970 245.4699 0010100 133.3404 226.8676 15.22551026 20191
FLOCK 3P-78             
1 42047U 17008DD  17184.19761132  .00003156  00000-0  13875-3 0  9996
2 42047  97.4971 245.5408 0009946 132.6164 227.5913 15.22597259 20137
FLOCK 3P-74             
1 42048U 17008DE  17184.59752711  .00002321  00000-0  10307-3 0  9994
2 42048  97.4974 245.9314 0010232 132.2238 227.9869 15.22525934 20190
FLOCK 3P-31             
1 42049U 17008DF  17184.13768349  .00001792  00000-0  80332-4 0  9996
2 42049  97.4953 245.4285 0009770 131.2532 228.9548 15.22514772 19585
FLOCK 3P-83             
1 42050U 17008DG  17184.40079068  .00003283  00000-0  14464-3 0  9990
2 42050  97.4971 245.7280 0010105 133.0901 227.1183 15.22491164 20890
FLOCK 3P-72             
1 42051U 17008DH  17184.38673208  .00001712  00000-0  76616-4 0  9997
2 42051  97.4975 245.7541 0009601 131.5187 228.6874 15.22634897 18480
LEMUR-2-REDFERN-GOES    
1 42059U 98067LA  17184.61635394  .00011445  00000-0  15382-3 0  9995
2 42059  51.6393 314.0831 0008073 358.4479   1.6487 15.58382280 18576
TECHEDSAT 5             
1 42066U 98067LB  17184.55406792  .00238553  00000-0  10826-2 0  9992
2 42066  51.6301 306.0840 0011014 325.2557  34.7725 15.82595741 18401
LEMUR-2-TRUTNA          
1 42067U 98067LC  17184.55518916  .00023151  00000-0  28208-3 0  9995
2 42067  51.6395 313.6737 0007695 354.4437   5.6470 15.60364201 18400
LEMUR-2-AUSTINTACIOUS   
1 42068U 98067LD  17184.60965232  .00016443  00000-0  21487-3 0  9997
2 42068  51.6399 314.0376 0007552 357.0402   3.0544 15.58770963 18500
LEMUR-2-TRUTNAHD        
1 42069U 98067LE  17184.61275082  .00013996  00000-0  18544-3 0  9996
2 42069  51.6404 314.0632 0007459 355.9669   4.1262 15.58550484 18559
SOMP2                   
1 42700U 98067LH  17184.58027398  .00011884  00000-0  17369-3 0  9997
2 42700  51.6404 316.0878 0006753  24.7363 335.3951 15.56072909  7497
HAVELSAT                
1 42701U 98067LJ  17184.58190421  .00011131  00000-0  16383-3 0  9996
2 42701  51.6406 316.0995 0006693  26.0060 334.1267 15.55957549  7489
COLUMBIA                
1 42702U 98067LK  17184.56702602  .00020787  00000-0  28840-3 0  9993
2 42702  51.6399 316.0000 0007007  14.4990 345.6201 15.56983528  7416
SGSAT                   
1 42703U 98067LL  17184.57415178  .00018029  00000-0  25497-3 0  9995
2 42703  51.6401 316.0484 0003159 333.7896  26.2935 15.56588428  7408
CXBN-2                  
1 42704U 98067LM  17184.58600874  .00010472  00000-0  15525-3 0  9991
2 42704  51.6404 316.1268 0002410 339.0311  21.0581 15.55847011  7419
ICECUBE                 
1 42705U 98067LN  17184.58538458  .00014817  00000-0  21533-3 0  9993
2 42705  51.6408 316.1244 0002465 344.8668  15.2249 15.56017280  7477
PHOENIX                 
1 42706U 98067LP  17184.38874200  .00013044  00000-0  19036-3 0  9996
2 42706  51.6406 317.0610 0001811   5.3109 354.7902 15.56027581  7377
X-CUBESAT               
1 42707U 98067LQ  17184.58199148  .00011180  00000-0  16431-3 0  9995
2 42707  51.6404 316.1005 0001962   4.0135 356.0871 15.56004794  7399
QBEE50-LTU-OC           
1 42708U 98067LR  17184.58296602  .00010662  00000-0  15727-3 0  9990
2 42708  51.6404 316.1068 0001954   3.8457 356.2550 15.55962792  7356
ALTAIR PATHFINDER       
1 42711U 98067LS  17184.59747135  .00007778  00000-0  11933-3 0  9996
2 42711  51.6404 316.2016 0004569 325.8457  34.2240 15.55332454  7069
SHARC                   
1 42712U 98067LT  17184.59458026  .00007426  00000-0  11402-3 0  9996
2 42712  51.6408 316.1841 0002497 334.2854  25.8013 15.55391203  7300
ZA-AEROSAT              
1 42713U 98067LU  17184.58953655  .00009293  00000-0  13937-3 0  9993
2 42713  51.6406 316.1504 0002465 324.5710  35.5117 15.55687807  7067
LINK                    
1 42714U 98067LV  17184.58913542  .00011137  00000-0  16509-3 0  9993
2 42714  51.6401 316.1471 0002848 327.6298  32.4518 15.55773548  7177
CSUNSAT 1               
1 42715U 98067LW  17184.59346649  .00009090  00000-0  13702-3 0  9990
2 42715  51.6402 316.1753 0004726 315.7834  44.2779 15.55576815  7069
UPSAT                   
1 42716U 98067LX  17184.51924020  .00012388  00000-0  18102-3 0  9991
2 42716  51.6404 316.4307 0004993  26.4230 333.7015 15.56042197  7186
SPACECUBE               
1 42717U 98067LY  17184.58675804  .00010358  00000-0  15360-3 0  9990
2 42717  51.6404 316.1320 0005028  27.4571 332.6685 15.55850030  6438
HOOPOE                  
1 42718U 98067LZ  17184.58550945  .00011592  00000-0  17051-3 0  9999
2 42718  51.6405 316.1239 0005039  25.7874 334.3368 15.55934543  6437
CHALLENGER              
1 42721U 98067MA  17184.59398603  .00014105  00000-0  20612-3 0  9995
2 42721  51.6401 316.1784 0008312   6.0870 354.0221 15.55885915  6139
NJUST-1                 
1 42722U 98067MB  17184.53585720  .00009126  00000-0  13825-3 0  9993
2 42722  51.6406 316.5401 0007998   9.1348 350.9787 15.55419519  6122
UNSW-ECO                
1 42723U 98067MC  17184.59800508  .00011311  00000-0  16843-3 0  9996
2 42723  51.6404 316.2057 0008012   7.4993 352.6116 15.55610435  6114
DUTHSAT                 
1 42724U 98067MD  17184.59676062  .00013779  00000-0  20249-3 0  9998
2 42724  51.6403 316.1974 0007235   8.8996 351.2122 15.55763104  6052
LILACSAT-1              
1 42725U 98067ME  17184.60180232  .00009537  00000-0  14449-3 0  9992
2 42725  51.6407 316.2311 0007022  11.8205 348.2950 15.55360455  6051
NSIGHT-1                
1 42726U 98067MF  17184.60487779  .00005319  00000-0  84539-4 0  9991
2 42726  51.6409 316.2518 0006885  14.8502 345.2690 15.55104987  6045
SNUSAT-1                
1 42727U 98067MG  17184.60174481  .00008955  00000-0  13583-3 0  9994
2 42727  51.6401 316.2293 0008473 333.8150  26.2412 15.55408363  6005
QBITO                   
1 42728U 98067MH  17184.53434638  .00010428  00000-0  15618-3 0  9999
2 42728  51.6406 316.5314 0004168  18.2053 341.9087 15.55570658  5833
AALTO-2                 
1 42729U 98067MJ  17184.59845986  .00010309  00000-0  15446-3 0  9995
2 42729  51.6404 316.2096 0004151  18.5350 341.5792 15.55574893  5857
SUSAT                   
1 42730U 98067MK  17184.59929486  .00010396  00000-0  15585-3 0  9995
2 42730  51.6403 316.2147 0004244  16.9367 343.1765 15.55548030  5850
I-INSPIRE II            
1 42731U 98067ML  17184.59743111  .00010444  00000-0  15581-3 0  9995
2 42731  51.6397 316.1995 0007865 320.4832  39.5585 15.55659648  5893
POLYITAN-2-SAU          
1 42732U 98067MM  17184.59770580  .00009996  00000-0  14973-3 0  9990
2 42732  51.6397 316.2014 0007784 320.3340  39.7081 15.55606587  5897
SNUSAT-1B               
1 42733U 98067MN  17184.59947679  .00009755  00000-0  14682-3 0  9996
2 42733  51.6398 316.2132 0007599 321.7199  38.3252 15.55508951  5892
EXALTA-1                
1 42734U 98067MP  17184.53328676  .00010899  00000-0  16227-3 0  9999
2 42734  51.6399 316.5219 0009590 343.5673  16.5006 15.55647960  5838
AOXIANG-1               
1 42735U 98067MQ  17184.59972520  .00008730  00000-0  13234-3 0  9995
2 42735  51.6404 316.2165 0008662   5.8635 354.2456 15.55461685  7266
BEEAGLESAT              
1 42736U 98067MR  17184.60013775  .00009909  00000-0  14918-3 0  9995
2 42736  51.6405 316.2194 0008575   4.9930 355.1145 15.55472618  5958
